start=new Date('2023-03-23T00:00:00.000Z').valueOf();
sats=[{"ELEMENT_SET_NO":"999","MEAN_ANOMALY":"296.7032","CLASSIFICATION_TYPE":"U","MEAN_MOTION":"15.06401266","REF_FRAME":"TEME","PERIAPSIS":"546.755","FILE":"3867104","CENTER_NAME":"EARTH","APOAPSIS":"547.664","MEAN_MOTION_DOT":"0.00019673","RA_OF_ASC_NODE":"280.5475","INCLINATION":"53.0509","TIME_SYSTEM":"UTC","DECAY_DATE":null,"MEAN_MOTION_DDOT":"0.0000000000000","EPOCH":"2023-03-22T05:00:00.865440","RCS_SIZE":"LARGE","ARG_OF_PERICENTER":"63.4024","REV_AT_EPOCH":"14546","GP_ID":"228627189","TLE_LINE1":"1 46068U 20055AT  23081.20834335  .00019673  00000-0  13359-2 0  9997","PERIOD":"95.592","MEAN_ELEMENT_THEORY":"SGP4","ECCENTRICITY":"0.00006560","EPHEMERIS_TYPE":"0","SEMIMAJOR_AXIS":"6925.345","SITE":"AFETR","NORAD_CAT_ID":"46068","OBJECT_TYPE":"PAYLOAD","BSTAR":"0.00133590000000","COUNTRY_CODE":"US","OBJECT_NAME":"STARLINK-1532","OBJECT_ID":"2020-055AT","LAUNCH_DATE":"2020-08-07","TLE_LINE2":"2 46068  53.0509 280.5475 0000656  63.4024 296.7032 15.06401266145465"},{"REV_AT_EPOCH":"14556","RCS_SIZE":"LARGE","ARG_OF_PERICENTER":"78.8709","GP_ID":"228640683","TLE_LINE1":"1 46069U 20055AU  23081.82114225  .00011583  00000-0  79475-3 0  9999","MEAN_MOTION_DDOT":"0.0000000000000","DECAY_DATE":null,"EPOCH":"2023-03-22T19:42:26.690400","ECCENTRICITY":"0.00010530","PERIOD":"95.591","MEAN_ELEMENT_THEORY":"SGP4","NORAD_CAT_ID":"46069","SITE":"AFETR","SEMIMAJOR_AXIS":"6925.281","EPHEMERIS_TYPE":"0","BSTAR":"0.00079475000000","COUNTRY_CODE":"US","OBJECT_TYPE":"PAYLOAD","TLE_LINE2":"2 46069  53.0510 277.8076 0001053  78.8709 281.2398 15.06421907145565","LAUNCH_DATE":"2020-08-07","OBJECT_ID":"2020-055AU","OBJECT_NAME":"STARLINK-1533","MEAN_ANOMALY":"281.2398","REF_FRAME":"TEME","MEAN_MOTION":"15.06421907","CLASSIFICATION_TYPE":"U","ELEMENT_SET_NO":"999","FILE":"3867769","PERIAPSIS":"546.417","MEAN_MOTION_DOT":"0.00011583","APOAPSIS":"547.876","CENTER_NAME":"EARTH","TIME_SYSTEM":"UTC","RA_OF_ASC_NODE":"277.8076","INCLINATION":"53.0510"},{"OBJECT_NAME":"STARLINK-1536","TLE_LINE2":"2 46070  53.0518 280.4223 0000952  87.7387 272.3711 15.06416346145478","LAUNCH_DATE":"2020-08-07","OBJECT_ID":"2020-055AV","COUNTRY_CODE":"US","BSTAR":"0.00111680000000","OBJECT_TYPE":"PAYLOAD","SEMIMAJOR_AXIS":"6925.298","SITE":"AFETR","NORAD_CAT_ID":"46070","EPHEMERIS_TYPE":"0","MEAN_ELEMENT_THEORY":"SGP4","PERIOD":"95.591","ECCENTRICITY":"0.00009520","EPOCH":"2023-03-22T05:43:50.048544","DECAY_DATE":null,"MEAN_MOTION_DDOT":"0.0000000000000","TLE_LINE1":"1 46070U 20055AV  23081.23877371  .00016400  00000-0  11168-2 0  9991","GP_ID":"228634076","REV_AT_EPOCH":"14547","RCS_SIZE":"LARGE","ARG_OF_PERICENTER":"87.7387","INCLINATION":"53.0518","RA_OF_ASC_NODE":"280.4223","TIME_SYSTEM":"UTC","CENTER_NAME":"EARTH","MEAN_MOTION_DOT":"0.00016400","APOAPSIS":"547.823","PERIAPSIS":"546.504","FILE":"3867427","ELEMENT_SET_NO":"999","REF_FRAME":"TEME","MEAN_MOTION":"15.06416346","CLASSIFICATION_TYPE":"U","MEAN_ANOMALY":"272.3711"},{"PERIOD":"95.592","MEAN_ELEMENT_THEORY":"SGP4","ECCENTRICITY":"0.00008890","MEAN_MOTION_DDOT":"0.0000000000000","DECAY_DATE":null,"EPOCH":"2023-03-21T20:37:08.090688","REV_AT_EPOCH":"14595","RCS_SIZE":"LARGE","ARG_OF_PERICENTER":"98.2183","TLE_LINE1":"1 46071U 20055AW  23080.85912142  .00006153  00000-0  43151-3 0  9997","GP_ID":"228616550","OBJECT_NAME":"STARLINK-1538","TLE_LINE2":"2 46071  53.0512 282.1254 0000889  98.2183 261.8906 15.06406937145953","OBJECT_ID":"2020-055AW","LAUNCH_DATE":"2020-08-07","SITE":"AFETR","SEMIMAJOR_AXIS":"6925.327","NORAD_CAT_ID":"46071","EPHEMERIS_TYPE":"0","BSTAR":"0.00043151000000","COUNTRY_CODE":"US","OBJECT_TYPE":"PAYLOAD","PERIAPSIS":"546.577","FILE":"3866953","ELEMENT_SET_NO":"999","MEAN_ANOMALY":"261.8906","REF_FRAME":"TEME","MEAN_MOTION":"15.06406937","CLASSIFICATION_TYPE":"U","RA_OF_ASC_NODE":"282.1254","INCLINATION":"53.0512","TIME_SYSTEM":"UTC","CENTER_NAME":"EARTH","MEAN_MOTION_DOT":"0.00006153","APOAPSIS":"547.808"},{"EPHEMERIS_TYPE":"0","SITE":"AFETR","SEMIMAJOR_AXIS":"6925.327","NORAD_CAT_ID":"46072","OBJECT_TYPE":"PAYLOAD","COUNTRY_CODE":"US","BSTAR":"0.00059308000000","OBJECT_NAME":"STARLINK-1539","LAUNCH_DATE":"2020-08-07","OBJECT_ID":"2020-055AX","TLE_LINE2":"2 46072  53.0518 282.3097 0001095  86.0261 274.0853 15.06407176145930","MEAN_MOTION_DDOT":"0.0000000000000","DECAY_DATE":null,"EPOCH":"2023-03-21T19:37:22.970208","ARG_OF_PERICENTER":"86.0261","RCS_SIZE":"LARGE","REV_AT_EPOCH":"14593","GP_ID":"228616800","TLE_LINE1":"1 46072U 20055AX  23080.81762697  .00008565  00000-0  59308-3 0  9992","PERIOD":"95.592","MEAN_ELEMENT_THEORY":"SGP4","ECCENTRICITY":"0.00010950","CENTER_NAME":"EARTH","APOAPSIS":"547.950","MEAN_MOTION_DOT":"0.00008565","RA_OF_ASC_NODE":"282.3097","INCLINATION":"53.0518","TIME_SYSTEM":"UTC","ELEMENT_SET_NO":"999","MEAN_ANOMALY":"274.0853","CLASSIFICATION_TYPE":"U","MEAN_MOTION":"15.06407176","REF_FRAME":"TEME","PERIAPSIS":"546.433","FILE":"3866953"},{"PERIAPSIS":"546.753","FILE":"3867750","ELEMENT_SET_NO":"999","MEAN_ANOMALY":"283.4968","CLASSIFICATION_TYPE":"U","REF_FRAME":"TEME","MEAN_MOTION":"15.06431255","RA_OF_ASC_NODE":"277.7702","INCLINATION":"53.0526","TIME_SYSTEM":"UTC","CENTER_NAME":"EARTH","APOAPSIS":"547.483","MEAN_MOTION_DOT":"0.00017461","PERIOD":"95.590","MEAN_ELEMENT_THEORY":"SGP4","ECCENTRICITY":"0.00005270","MEAN_MOTION_DDOT":"0.0000000000000","DECAY_DATE":null,"EPOCH":"2023-03-22T19:53:02.794848","ARG_OF_PERICENTER":"76.6080","RCS_SIZE":"LARGE","REV_AT_EPOCH":"14556","TLE_LINE1":"1 46073U 20055AY  23081.82850457  .00017461  00000-0  11872-2 0  9995","GP_ID":"228640437","OBJECT_NAME":"STARLINK-1542","LAUNCH_DATE":"2020-08-07","OBJECT_ID":"2020-055AY","TLE_LINE2":"2 46073  53.0526 277.7702 0000527  76.6080 283.4968 15.06431255145569","EPHEMERIS_TYPE":"0","NORAD_CAT_ID":"46073","SITE":"AFETR","SEMIMAJOR_AXIS":"6925.253","OBJECT_TYPE":"PAYLOAD","BSTAR":"0.00118720000000","COUNTRY_CODE":"US"},{"RA_OF_ASC_NODE":"280.5192","INCLINATION":"53.0517","TIME_SYSTEM":"UTC","CENTER_NAME":"EARTH","APOAPSIS":"547.990","MEAN_MOTION_DOT":"0.00012609","PERIAPSIS":"546.361","FILE":"3867120","ELEMENT_SET_NO":"999","MEAN_ANOMALY":"276.6626","CLASSIFICATION_TYPE":"U","MEAN_MOTION":"15.06412510","REF_FRAME":"TEME","OBJECT_NAME":"STARLINK-1549","LAUNCH_DATE":"2020-08-07","OBJECT_ID":"2020-055AZ","TLE_LINE2":"2 46074  53.0517 280.5192 0001176  83.4497 276.6626 15.06412510145472","EPHEMERIS_TYPE":"0","SEMIMAJOR_AXIS":"6925.310","SITE":"AFETR","NORAD_CAT_ID":"46074","OBJECT_TYPE":"PAYLOAD","COUNTRY_CODE":"US","BSTAR":"0.00086360000000","PERIOD":"95.591","MEAN_ELEMENT_THEORY":"SGP4","ECCENTRICITY":"0.00011760","MEAN_MOTION_DDOT":"0.0000000000000","DECAY_DATE":null,"EPOCH":"2023-03-22T05:11:58.965216","RCS_SIZE":"LARGE","ARG_OF_PERICENTER":"83.4497","REV_AT_EPOCH":"14547","TLE_LINE1":"1 46074U 20055AZ  23081.21665469  .00012609  00000-0  86360-3 0  9990","GP_ID":"228627643"},{"CENTER_NAME":"EARTH","APOAPSIS":"547.946","MEAN_MOTION_DOT":"0.00011623","INCLINATION":"53.0519","RA_OF_ASC_NODE":"280.4047","TIME_SYSTEM":"UTC","ELEMENT_SET_NO":"999","CLASSIFICATION_TYPE":"U","REF_FRAME":"TEME","MEAN_MOTION":"15.06402936","MEAN_ANOMALY":"272.7358","PERIAPSIS":"546.464","FILE":"3867444","OBJECT_TYPE":"PAYLOAD","BSTAR":"0.00079783000000","COUNTRY_CODE":"US","EPHEMERIS_TYPE":"0","SITE":"AFETR","SEMIMAJOR_AXIS":"6925.340","NORAD_CAT_ID":"46075","OBJECT_NAME":"STARLINK-1551","LAUNCH_DATE":"2020-08-07","OBJECT_ID":"2020-055BA","TLE_LINE2":"2 46075  53.0519 280.4047 0001070  87.3753 272.7358 15.06402936145474","EPOCH":"2023-03-22T05:49:08.106816","DECAY_DATE":null,"MEAN_MOTION_DDOT":"0.0000000000000","TLE_LINE1":"1 46075U 20055BA  23081.24245494  .00011623  00000-0  79783-3 0  9992","GP_ID":"228635052","ARG_OF_PERICENTER":"87.3753","RCS_SIZE":"LARGE","REV_AT_EPOCH":"14547","MEAN_ELEMENT_THEORY":"SGP4","PERIOD":"95.592","ECCENTRICITY":"0.00010700"},{"FILE":"3867780","PERIAPSIS":"546.239","MEAN_ANOMALY":"276.8728","CLASSIFICATION_TYPE":"U","REF_FRAME":"TEME","MEAN_MOTION":"15.06437084","ELEMENT_SET_NO":"999","TIME_SYSTEM":"UTC","RA_OF_ASC_NODE":"277.9025","INCLINATION":"53.0527","APOAPSIS":"547.961","MEAN_MOTION_DOT":"0.00020457","CENTER_NAME":"EARTH","ECCENTRICITY":"0.00012430","PERIOD":"95.590","MEAN_ELEMENT_THEORY":"SGP4","RCS_SIZE":"LARGE","ARG_OF_PERICENTER":"83.2403","REV_AT_EPOCH":"14555","TLE_LINE1":"1 46076U 20055BB  23081.79902513  .00020457  00000-0  13869-2 0  9992","GP_ID":"228640762","MEAN_MOTION_DDOT":"0.0000000000000","DECAY_DATE":null,"EPOCH":"2023-03-22T19:10:35.771232","LAUNCH_DATE":"2020-08-07","OBJECT_ID":"2020-055BB","TLE_LINE2":"2 46076  53.0527 277.9025 0001243  83.2403 276.8728 15.06437084145557","OBJECT_NAME":"STARLINK-1552","EPHEMERIS_TYPE":"0","NORAD_CAT_ID":"46076","SITE":"AFETR","SEMIMAJOR_AXIS":"6925.235","OBJECT_TYPE":"PAYLOAD","BSTAR":"0.00138690000000","COUNTRY_CODE":"US"},{"TLE_LINE1":"1 46077U 20055BC  23081.84693982  .00019790  00000-0  13426-2 0  9993","GP_ID":"228640611","REV_AT_EPOCH":"14556","RCS_SIZE":"LARGE","ARG_OF_PERICENTER":"70.1139","EPOCH":"2023-03-22T20:19:35.600448","MEAN_MOTION_DDOT":"0.0000000000000","DECAY_DATE":null,"ECCENTRICITY":"0.00012500","MEAN_ELEMENT_THEORY":"SGP4","PERIOD":"95.590","BSTAR":"0.00134260000000","COUNTRY_CODE":"US","OBJECT_TYPE":"PAYLOAD","SITE":"AFETR","NORAD_CAT_ID":"46077","SEMIMAJOR_AXIS":"6925.251","EPHEMERIS_TYPE":"0","TLE_LINE2":"2 46077  53.0508 277.6902 0001250  70.1139 289.9984 15.06431758145569","LAUNCH_DATE":"2020-08-07","OBJECT_ID":"2020-055BC","OBJECT_NAME":"STARLINK-1559","MEAN_MOTION":"15.06431758","REF_FRAME":"TEME","CLASSIFICATION_TYPE":"U","MEAN_ANOMALY":"289.9984","ELEMENT_SET_NO":"999","FILE":"3867761","PERIAPSIS":"546.251","MEAN_MOTION_DOT":"0.00019790","APOAPSIS":"547.982","CENTER_NAME":"EARTH","TIME_SYSTEM":"UTC","INCLINATION":"53.0508","RA_OF_ASC_NODE":"277.6902"}];
